OBJECT_NAME,OBJECT_ID,EPOCH,MEAN_MOTION,ECCENTRICITY,INCLINATION,RA_OF_ASC_NODE,ARG_OF_PERICENTER,MEAN_ANOMALY,EPHEMERIS_TYPE,CLASSIFICATION_TYPE,NORAD_CAT_ID,ELEMENT_SET_NO,REV_AT_EPOCH,BSTAR,MEAN_MOTION_DOT,MEAN_MOTION_DDOT
KUZGTU 1 (RS47S),2023-091AV,2026-06-04T23:57:09.600192,15.29567914,.0012187,97.5064,220.3564,135.6281,224.5938,0,U,57217,999,16251,.5093E-3,.14562E-3,0
SONATE-2,2024-043Q,2026-06-03T23:22:02.781120,15.57700323,.00063261,97.5529,304.5700,241.9322,118.1294,0,U,59112,999,12583,.52778692E-3,.39146E-3,0
MESAT1,2024-125G,2026-06-05T01:35:57.379776,15.61861021,.0008327,97.2304,13.2841,252.2678,107.7671,0,U,60209,999,10767,.59628E-3,.51928E-3,0
OOV-CUBE (TUBSAT-30),2024-128F,2026-06-05T00:16:51.782016,15.02717688,.004614,61.9954,268.0264,131.0618,229.4474,0,U,60240,999,10428,.24869E-3,.32E-4,0
COLIBRI-S (RS67S),2024-199M,2026-06-05T03:55:42.670848,15.47204985,.0007008,97.3007,29.9115,334.6195,25.4709,0,U,61746,999,13555,.39397E-3,.1998E-3,0
HORS 3 (RS81S),2024-199U,2026-06-05T04:20:51.686592,15.54115064,.0004838,97.2989,31.7893,344.8316,15.2792,0,U,61753,999,13569,.52434E-3,.34048E-3,0
HORS 4 (RS82S),2024-199V,2026-06-05T04:14:40.729920,15.58528769,.0003622,97.2935,32.9115,337.4911,22.6186,0,U,61754,999,13577,.57973E-3,.44369E-3,0
ARCTICSAT 1 (RS74S),2024-199AD,2026-06-05T01:02:22.230240,16.02262718,.0006188,97.2851,39.2907,198.3612,161.7446,0,U,61762,999,13617,.1227E-2,.70668E-2,.23827E-3
SIT-2086,2024-199AF,2026-06-05T01:55:40.944000,15.52220590,.0004868,97.2947,32.2052,318.5775,41.5108,0,U,61764,999,13255,.65561E-3,.39812E-3,0
HYPERVIEW 1G (RS66S),2024-199AP,2026-06-05T04:13:49.067040,15.72720763,.000217,97.2889,35.3155,316.4451,43.6641,0,U,61772,999,13278,.79688E-3,.108199E-2,0
ALTAIR (RS65S),2024-199AW,2026-06-05T01:36:31.980384,15.36769986,.0012405,97.3038,25.4990,358.4681,1.6523,0,U,61779,999,13525,.35339E-3,.12653E-3,0
ASRTU-1 (AO-123),2024-199AY,2026-06-05T04:11:48.366240,15.35494082,.0013611,97.3010,24.9543,359.8511,0.2726,0,U,61781,999,13208,.2252E-3,.771E-4,0
SAMSAT-IONOSPHERE (RS75S),2024-199BB,2026-06-05T02:32:57.172992,15.56536323,.0006716,97.2957,31.7180,338.0621,22.0346,0,U,61784,999,13568,.66727E-3,.47479E-3,0
RTU MIREA 1 (RS51S),2024-199BC,2026-06-05T02:12:54.188640,15.59734725,.0006193,97.2949,32.4756,333.1406,26.9529,0,U,61785,999,13258,.81961E-3,.65903E-3,0
TEVEL2-4,2025-052D,2026-06-04T15:51:50.035392,15.34152369,.00042884,97.3926,52.0362,127.7510,232.4122,0,U,63213,999,6819,.65897715E-3,.21744E-3,0
TEVEL2-5,2025-052E,2026-06-04T16:19:21.885024,15.33985738,.00040695,97.3911,52.0060,127.8276,232.3335,0,U,63214,999,6819,.62136531E-3,.20387E-3,0
TEVEL2-6,2025-052F,2026-06-04T16:36:41.612256,15.33948162,.0004351,97.3914,52.0022,129.5253,230.6375,0,U,63215,999,6819,.61616E-3,.20192E-3,0
TEVEL2-1,2025-052H,2026-06-04T15:38:22.630848,15.33430587,.00039028,97.3886,51.6013,137.4262,222.7283,0,U,63217,999,6817,.62394043E-3,.20115E-3,0
TEVEL2-3,2025-052J,2026-06-04T15:31:17.786496,15.33483588,.00039786,97.3888,51.6166,138.3190,221.8356,0,U,63218,999,6817,.62480469E-3,.20177E-3,0
TEVEL2-2,2025-052K,2026-06-04T15:38:55.495680,15.33439815,.00039362,97.3887,51.6034,139.0495,221.1044,0,U,63219,999,6817,.63617993E-3,.20518E-3,0
TEVEL2-9,2025-052AD,2026-06-04T22:33:43.700832,15.31506675,.0006618,97.3944,51.2932,166.5216,193.6204,0,U,63237,999,6815,.6023E-3,.18283E-3,0
TEVEL2-7,2025-052AE,2026-06-04T15:38:47.453568,15.31212802,.00065817,97.3951,50.9267,168.2020,191.9377,0,U,63238,999,6810,.59587575E-3,.17921E-3,0
TEVEL2-8,2025-052AF,2026-06-04T15:50:28.971456,15.31195553,.00065639,97.3951,50.9120,168.5625,191.5767,0,U,63239,999,6810,.59749177E-3,.17961E-3,0
INNOSAT 16 (RS92S7),2025-155C,2026-06-05T04:39:40.701312,15.25323826,.0009149,97.4562,123.3620,219.8015,140.2553,0,U,64878,999,7884,.23818E-3,.5934E-4,0
GEOSCAN 6 (RS92S6),2025-155D,2026-06-05T03:33:05.543712,15.29916683,.0006739,97.4555,124.6560,204.8528,155.2389,0,U,64879,999,7892,.40874E-3,.11776E-3,0
GEOSCAN 1 (RS92S1),2025-155E,2026-06-05T03:43:15.406752,15.30494083,.0006661,97.4552,124.8008,204.5887,155.5037,0,U,64880,999,7893,.41557E-3,.1219E-3,0
239ALFEROV (RS61S),2025-155F,2026-06-05T03:23:52.192320,15.32605244,.0006274,97.4554,125.3088,201.0566,159.0418,0,U,64881,999,7896,.49745E-3,.15606E-3,0
GEOSCAN 2 (RS92S2),2025-155Q,2026-06-05T03:37:13.991232,15.30766364,.0006514,97.4551,124.9443,188.6795,171.4334,0,U,64890,999,7894,.41774E-3,.12358E-3,0
GEOSCAN 5 (RS92S5),2025-155R,2026-06-05T04:45:39.887712,15.32923480,.0004956,97.4545,125.4990,203.8481,156.2532,0,U,64891,999,7898,.44336E-3,.14035E-3,0
GEOSCAN 4 (RS92S4),2025-155S,2026-06-05T02:50:36.322080,15.33072008,.0004989,97.4549,125.4634,205.1427,154.9572,0,U,64892,999,7897,.53302E-3,.16974E-3,0
