KUZGTU 1 (RS47S)        
1 57217U 23091AV  26155.99802778  .00014562  00000+0  50930-3 0  9993
2 57217  97.5064 220.3564 0012187 135.6281 224.5938 15.29567914162519
SONATE-2                
1 59112U 24043Q   26154.97364330  .00039146  00000+0  52779-3 0  9999
2 59112  97.5529 304.5700 0006326 241.9322 118.1294 15.57700323125834
MESAT1                  
1 60209U 24125G   26156.06663634  .00051928  00000+0  59628-3 0  9992
2 60209  97.2304  13.2841 0008327 252.2678 107.7671 15.61861021107676
OOV-CUBE (TUBSAT-30)    
1 60240U 24128F   26156.01171044  .00003200  00000+0  24869-3 0  9993
2 60240  61.9954 268.0264 0046140 131.0618 229.4474 15.02717688104283
COLIBRI-S (RS67S)       
1 61746U 24199M   26156.16368832  .00019980  00000+0  39397-3 0  9996
2 61746  97.3007  29.9115 0007008 334.6195  25.4709 15.47204985135556
HORS 3 (RS81S)          
1 61753U 24199U   26156.18115378  .00034048  00000+0  52434-3 0  9990
2 61753  97.2989  31.7893 0004838 344.8316  15.2792 15.54115064135693
HORS 4 (RS82S)          
1 61754U 24199V   26156.17686030  .00044369  00000+0  57973-3 0  9998
2 61754  97.2935  32.9115 0003622 337.4911  22.6186 15.58528769135776
ARCTICSAT 1 (RS74S)     
1 61762U 24199AD  26156.04331285  .00706680  23827-3  12270-2 0  9999
2 61762  97.2851  39.2907 0006188 198.3612 161.7446 16.02262718136171
SIT-2086                
1 61764U 24199AF  26156.08033500  .00039812  00000+0  65561-3 0  9996
2 61764  97.2947  32.2052 0004868 318.5775  41.5108 15.52220590132556
HYPERVIEW 1G (RS66S)    
1 61772U 24199AP  26156.17626235  .00108199  00000+0  79688-3 0  9998
2 61772  97.2889  35.3155 0002170 316.4451  43.6641 15.72720763132789
ALTAIR (RS65S)          
1 61779U 24199AW  26156.06703681  .00012653  00000+0  35339-3 0  9998
2 61779  97.3038  25.4990 0012405 358.4681   1.6523 15.36769986135251
ASRTU-1 (AO-123)        
1 61781U 24199AY  26156.17486535  .00007710  00000+0  22520-3 0  9995
2 61781  97.3010  24.9543 0013611 359.8511   0.2726 15.35494082132088
SAMSAT-IONOSPHERE (RS7*)
1 61784U 24199BB  26156.10621728  .00047479  00000+0  66727-3 0  9999
2 61784  97.2957  31.7180 0006716 338.0621  22.0346 15.56536323135689
RTU MIREA 1 (RS51S)     
1 61785U 24199BC  26156.09229385  .00065903  00000+0  81961-3 0  9990
2 61785  97.2949  32.4756 0006193 333.1406  26.9529 15.59734725132585
TEVEL2-4                
1 63213U 25052D   26155.66099578  .00021744  00000+0  65898-3 0  9994
2 63213  97.3926  52.0362 0004288 127.7510 232.4122 15.34152369 68195
TEVEL2-5                
1 63214U 25052E   26155.68011441  .00020387  00000+0  62137-3 0  9995
2 63214  97.3911  52.0060 0004069 127.8276 232.3335 15.33985738 68190
TEVEL2-6                
1 63215U 25052F   26155.69214829  .00020192  00000+0  61616-3 0  9997
2 63215  97.3914  52.0022 0004351 129.5253 230.6375 15.33948162 68195
TEVEL2-1                
1 63217U 25052H   26155.65165082  .00020115  00000+0  62394-3 0  9990
2 63217  97.3886  51.6013 0003902 137.4262 222.7283 15.33430587 68174
TEVEL2-3                
1 63218U 25052J   26155.64673364  .00020177  00000+0  62480-3 0  9991
2 63218  97.3888  51.6166 0003978 138.3190 221.8356 15.33483588 68179
TEVEL2-2                
1 63219U 25052K   26155.65203120  .00020518  00000+0  63618-3 0  9995
2 63219  97.3887  51.6034 0003936 139.0495 221.1044 15.33439815 68174
TEVEL2-9                
1 63237U 25052AD  26155.94008913  .00018283  00000+0  60230-3 0  9993
2 63237  97.3944  51.2932 0006618 166.5216 193.6204 15.31506675 68153
TEVEL2-7                
1 63238U 25052AE  26155.65193812  .00017921  00000+0  59588-3 0  9997
2 63238  97.3951  50.9267 0006581 168.2020 191.9377 15.31212802 68103
TEVEL2-8                
1 63239U 25052AF  26155.66005754  .00017961  00000+0  59749-3 0  9999
2 63239  97.3951  50.9120 0006563 168.5625 191.5767 15.31195553 68108
INNOSAT 16 (RS92S7)     
1 64878U 25155C   26156.19422108  .00005934  00000+0  23818-3 0  9993
2 64878  97.4562 123.3620 0009149 219.8015 140.2553 15.25323826 78848
GEOSCAN 6 (RS92S6)      
1 64879U 25155D   26156.14798083  .00011776  00000+0  40874-3 0  9999
2 64879  97.4555 124.6560 0006739 204.8528 155.2389 15.29916683 78928
GEOSCAN 1 (RS92S1)      
1 64880U 25155E   26156.15503943  .00012190  00000+0  41557-3 0  9991
2 64880  97.4552 124.8008 0006661 204.5887 155.5037 15.30494083 78936
239ALFEROV (RS61S)      
1 64881U 25155F   26156.14157630  .00015606  00000+0  49745-3 0  9991
2 64881  97.4554 125.3088 0006274 201.0566 159.0418 15.32605244 78969
GEOSCAN 2 (RS92S2)      
1 64890U 25155Q   26156.15085638  .00012358  00000+0  41774-3 0  9995
2 64890  97.4551 124.9443 0006514 188.6795 171.4334 15.30766364 78949
GEOSCAN 5 (RS92S5)      
1 64891U 25155R   26156.19837833  .00014035  00000+0  44336-3 0  9993
2 64891  97.4545 125.4990 0004956 203.8481 156.2532 15.32923480 78987
GEOSCAN 4 (RS92S4)      
1 64892U 25155S   26156.11847595  .00016974  00000+0  53302-3 0  9999
2 64892  97.4549 125.4634 0004989 205.1427 154.9572 15.33072008 78978
